FENGYUN 1C DEB          
1 35211U 99025DPT 17345.58873800  .00000692  00000-0  48804-3 0  9990
2 35211  98.4074  28.6443 0144465 191.2021 325.1059 13.96034631485540
